start=new Date('2022-08-24T00:00:00.000Z').valueOf();
sats=[{"COUNTRY_CODE":"US","MEAN_MOTION_DOT":"0.00000101","MEAN_ANOMALY":"283.5640","TLE_LINE2":"2 48400  53.0565  30.2185 0001410  76.5506 283.5640 15.06386828 72280","FILE":"3545624","OBJECT_TYPE":"PAYLOAD","MEAN_MOTION":"15.06386828","EPHEMERIS_TYPE":"0","ECCENTRICITY":"0.00014100","PERIOD":"95.593","DECAY_DATE":null,"REV_AT_EPOCH":"7228","EPOCH":"2022-08-23T18:43:45.089472","NORAD_CAT_ID":"48400","RCS_SIZE":"LARGE","LAUNCH_DATE":"2021-05-04","TLE_LINE1":"1 48400U 21038AZ  22235.78038298  .00000101  00000-0  25714-4 0  9994","GP_ID":"210860646","ARG_OF_PERICENTER":"76.5506","SITE":"AFETR","INCLINATION":"53.0565","SEMIMAJOR_AXIS":"6925.389","MEAN_MOTION_DDOT":"0.0000000000000","BSTAR":"0.00002571400000","TIME_SYSTEM":"UTC","CENTER_NAME":"EARTH","MEAN_ELEMENT_THEORY":"SGP4","ELEMENT_SET_NO":"999","APOAPSIS":"548.230","PERIAPSIS":"546.277","REF_FRAME":"TEME","CLASSIFICATION_TYPE":"U","RA_OF_ASC_NODE":"30.2185","OBJECT_NAME":"STARLINK-2576","OBJECT_ID":"2021-038AZ"},{"RCS_SIZE":"LARGE","TLE_LINE1":"1 48401U 21038BA  22235.61819787  .00000555  00000-0  56176-4 0  9996","LAUNCH_DATE":"2021-05-04","GP_ID":"210860889","ARG_OF_PERICENTER":"72.5327","ECCENTRICITY":"0.00014550","PERIOD":"95.592","DECAY_DATE":null,"NORAD_CAT_ID":"48401","EPOCH":"2022-08-23T14:50:12.295968","REV_AT_EPOCH":"7225","TLE_LINE2":"2 48401  53.0559  30.9491 0001455  72.5327 287.5821 15.06400319 72251","MEAN_ANOMALY":"287.5821","MEAN_MOTION_DOT":"0.00000555","OBJECT_TYPE":"PAYLOAD","FILE":"3545624","EPHEMERIS_TYPE":"0","MEAN_MOTION":"15.06400319","COUNTRY_CODE":"US","CLASSIFICATION_TYPE":"U","OBJECT_ID":"2021-038BA","OBJECT_NAME":"STARLINK-2571","RA_OF_ASC_NODE":"30.9491","MEAN_ELEMENT_THEORY":"SGP4","CENTER_NAME":"EARTH","ELEMENT_SET_NO":"999","REF_FRAME":"TEME","PERIAPSIS":"546.205","APOAPSIS":"548.220","TIME_SYSTEM":"UTC","SITE":"AFETR","INCLINATION":"53.0559","SEMIMAJOR_AXIS":"6925.348","BSTAR":"0.00005617600000","MEAN_MOTION_DDOT":"0.0000000000000"},{"ECCENTRICITY":"0.00014820","PERIOD":"95.592","DECAY_DATE":null,"EPOCH":"2022-08-23T18:37:04.964160","NORAD_CAT_ID":"48402","REV_AT_EPOCH":"7228","RCS_SIZE":"LARGE","LAUNCH_DATE":"2021-05-04","TLE_LINE1":"1 48402U 21038BB  22235.77575190  .00000570  00000-0  57161-4 0  9993","ARG_OF_PERICENTER":"78.9179","GP_ID":"210859645","COUNTRY_CODE":"US","MEAN_MOTION_DOT":"0.00000570","TLE_LINE2":"2 48402  53.0569  30.2220 0001482  78.9179 281.1976 15.06397602 72285","MEAN_ANOMALY":"281.1976","FILE":"3545624","OBJECT_TYPE":"PAYLOAD","MEAN_MOTION":"15.06397602","EPHEMERIS_TYPE":"0","CENTER_NAME":"EARTH","MEAN_ELEMENT_THEORY":"SGP4","ELEMENT_SET_NO":"999","PERIAPSIS":"546.195","APOAPSIS":"548.247","REF_FRAME":"TEME","CLASSIFICATION_TYPE":"U","RA_OF_ASC_NODE":"30.2220","OBJECT_ID":"2021-038BB","OBJECT_NAME":"STARLINK-2560","SITE":"AFETR","INCLINATION":"53.0569","SEMIMAJOR_AXIS":"6925.356","MEAN_MOTION_DDOT":"0.0000000000000","BSTAR":"0.00005716100000","TIME_SYSTEM":"UTC"},{"PERIAPSIS":"546.372","APOAPSIS":"548.099","REF_FRAME":"TEME","ELEMENT_SET_NO":"999","CENTER_NAME":"EARTH","MEAN_ELEMENT_THEORY":"SGP4","RA_OF_ASC_NODE":"30.2512","OBJECT_NAME":"STARLINK-2561","OBJECT_ID":"2021-038BC","CLASSIFICATION_TYPE":"U","MEAN_MOTION_DDOT":"0.0000000000000","BSTAR":"0.00005241000000","SEMIMAJOR_AXIS":"6925.371","INCLINATION":"53.0557","SITE":"AFETR","TIME_SYSTEM":"UTC","EPOCH":"2022-08-23T18:33:08.597088","NORAD_CAT_ID":"48403","REV_AT_EPOCH":"7228","DECAY_DATE":null,"PERIOD":"95.593","ECCENTRICITY":"0.00012470","GP_ID":"210859893","ARG_OF_PERICENTER":"79.0204","LAUNCH_DATE":"2021-05-04","TLE_LINE1":"1 48403U 21038BC  22235.77301617  .00000499  00000-0  52410-4 0  9997","RCS_SIZE":"LARGE","COUNTRY_CODE":"US","MEAN_MOTION":"15.06392786","EPHEMERIS_TYPE":"0","OBJECT_TYPE":"PAYLOAD","FILE":"3545624","MEAN_MOTION_DOT":"0.00000499","TLE_LINE2":"2 48403  53.0557  30.2512 0001247  79.0204 281.0925 15.06392786 72288","MEAN_ANOMALY":"281.0925"},{"TIME_SYSTEM":"UTC","INCLINATION":"53.0549","SITE":"AFETR","BSTAR":"0.00004440800000","MEAN_MOTION_DDOT":"0.0000000000000","SEMIMAJOR_AXIS":"6925.361","CLASSIFICATION_TYPE":"U","OBJECT_NAME":"STARLINK-2593","OBJECT_ID":"2021-038BD","RA_OF_ASC_NODE":"30.5653","ELEMENT_SET_NO":"999","MEAN_ELEMENT_THEORY":"SGP4","CENTER_NAME":"EARTH","REF_FRAME":"TEME","PERIAPSIS":"546.293","APOAPSIS":"548.160","FILE":"3545624","OBJECT_TYPE":"PAYLOAD","MEAN_ANOMALY":"268.2439","TLE_LINE2":"2 48404  53.0549  30.5653 0001348  91.8704 268.2439 15.06395887 72279","MEAN_MOTION_DOT":"0.00000380","EPHEMERIS_TYPE":"0","MEAN_MOTION":"15.06395887","COUNTRY_CODE":"US","TLE_LINE1":"1 48404U 21038BD  22235.70297516  .00000380  00000-0  44408-4 0  9990","LAUNCH_DATE":"2021-05-04","RCS_SIZE":"LARGE","ARG_OF_PERICENTER":"91.8704","GP_ID":"210860147","PERIOD":"95.592","ECCENTRICITY":"0.00013480","EPOCH":"2022-08-23T16:52:17.053824","REV_AT_EPOCH":"7227","NORAD_CAT_ID":"48404","DECAY_DATE":null},{"CENTER_NAME":"EARTH","MEAN_ELEMENT_THEORY":"SGP4","ELEMENT_SET_NO":"999","PERIAPSIS":"546.270","APOAPSIS":"548.182","REF_FRAME":"TEME","CLASSIFICATION_TYPE":"U","RA_OF_ASC_NODE":"30.2633","OBJECT_NAME":"STARLINK-2570","OBJECT_ID":"2021-038BE","SITE":"AFETR","INCLINATION":"53.0546","SEMIMAJOR_AXIS":"6925.361","MEAN_MOTION_DDOT":"0.0000000000000","BSTAR":"0.00006544800000","TIME_SYSTEM":"UTC","ECCENTRICITY":"0.00013800","PERIOD":"95.592","DECAY_DATE":null,"EPOCH":"2022-08-23T18:22:31.302048","NORAD_CAT_ID":"48405","REV_AT_EPOCH":"7228","RCS_SIZE":"LARGE","LAUNCH_DATE":"2021-05-04","TLE_LINE1":"1 48405U 21038BE  22235.76564007  .00000693  00000-0  65448-4 0  9993","GP_ID":"210860390","ARG_OF_PERICENTER":"77.8556","COUNTRY_CODE":"US","MEAN_MOTION_DOT":"0.00000693","MEAN_ANOMALY":"282.2588","TLE_LINE2":"2 48405  53.0546  30.2633 0001380  77.8556 282.2588 15.06395948 72287","FILE":"3545624","OBJECT_TYPE":"PAYLOAD","MEAN_MOTION":"15.06395948","EPHEMERIS_TYPE":"0"},{"SITE":"AFETR","INCLINATION":"53.0561","SEMIMAJOR_AXIS":"6925.272","BSTAR":"0.00022042000000","MEAN_MOTION_DDOT":"0.0000000000000","TIME_SYSTEM":"UTC","MEAN_ELEMENT_THEORY":"SGP4","CENTER_NAME":"EARTH","ELEMENT_SET_NO":"999","REF_FRAME":"TEME","APOAPSIS":"548.008","PERIAPSIS":"546.267","CLASSIFICATION_TYPE":"U","OBJECT_ID":"2021-038BF","OBJECT_NAME":"STARLINK-2568","RA_OF_ASC_NODE":"29.9993","COUNTRY_CODE":"US","MEAN_ANOMALY":"282.8480","TLE_LINE2":"2 48406  53.0561  29.9993 0001257  77.2650 282.8480 15.06424830 72292","MEAN_MOTION_DOT":"0.00003005","FILE":"3545624","OBJECT_TYPE":"PAYLOAD","EPHEMERIS_TYPE":"0","MEAN_MOTION":"15.06424830","ECCENTRICITY":"0.00012570","PERIOD":"95.591","DECAY_DATE":null,"REV_AT_EPOCH":"7229","EPOCH":"2022-08-23T19:52:41.275200","NORAD_CAT_ID":"48406","RCS_SIZE":"LARGE","TLE_LINE1":"1 48406U 21038BF  22235.82825550  .00003005  00000-0  22042-3 0  9996","LAUNCH_DATE":"2021-05-04","GP_ID":"210859146","ARG_OF_PERICENTER":"77.2650"},{"TIME_SYSTEM":"UTC","SEMIMAJOR_AXIS":"6925.356","MEAN_MOTION_DDOT":"0.0000000000000","BSTAR":"0.00004464100000","SITE":"AFETR","INCLINATION":"53.0559","RA_OF_ASC_NODE":"29.9956","OBJECT_ID":"2021-038BG","OBJECT_NAME":"STARLINK-2595","CLASSIFICATION_TYPE":"U","APOAPSIS":"548.214","PERIAPSIS":"546.228","REF_FRAME":"TEME","CENTER_NAME":"EARTH","MEAN_ELEMENT_THEORY":"SGP4","ELEMENT_SET_NO":"999","MEAN_MOTION":"15.06397571","EPHEMERIS_TYPE":"0","MEAN_MOTION_DOT":"0.00000383","TLE_LINE2":"2 48407  53.0559  29.9956 0001434  74.6655 285.4493 15.06397571 72285","MEAN_ANOMALY":"285.4493","OBJECT_TYPE":"PAYLOAD","FILE":"3545624","COUNTRY_CODE":"US","GP_ID":"210859394","ARG_OF_PERICENTER":"74.6655","RCS_SIZE":"LARGE","LAUNCH_DATE":"2021-05-04","TLE_LINE1":"1 48407U 21038BG  22235.82461511  .00000383  00000-0  44641-4 0  9996","DECAY_DATE":null,"EPOCH":"2022-08-23T19:47:26.745504","NORAD_CAT_ID":"48407","REV_AT_EPOCH":"7228","ECCENTRICITY":"0.00014340","PERIOD":"95.592"},{"ECCENTRICITY":"0.00011710","PERIOD":"95.592","DECAY_DATE":null,"REV_AT_EPOCH":"7226","EPOCH":"2022-08-23T16:31:03.400320","NORAD_CAT_ID":"48408","RCS_SIZE":"LARGE","LAUNCH_DATE":"2021-05-04","TLE_LINE1":"1 48408U 21038BH  22235.68823380  .00002071  00000-0  15790-3 0  9995","GP_ID":"210860647","ARG_OF_PERICENTER":"112.5157","COUNTRY_CODE":"US","MEAN_MOTION_DOT":"0.00002071","TLE_LINE2":"2 48408  53.0563  30.6310 0001171 112.5157 247.5956 15.06400099 72262","MEAN_ANOMALY":"247.5956","FILE":"3545624","OBJECT_TYPE":"PAYLOAD","MEAN_MOTION":"15.06400099","EPHEMERIS_TYPE":"0","CENTER_NAME":"EARTH","MEAN_ELEMENT_THEORY":"SGP4","ELEMENT_SET_NO":"999","PERIAPSIS":"546.402","APOAPSIS":"548.024","REF_FRAME":"TEME","CLASSIFICATION_TYPE":"U","RA_OF_ASC_NODE":"30.6310","OBJECT_ID":"2021-038BH","OBJECT_NAME":"STARLINK-2592","SITE":"AFETR","INCLINATION":"53.0563","SEMIMAJOR_AXIS":"6925.348","MEAN_MOTION_DDOT":"0.0000000000000","BSTAR":"0.00015790000000","TIME_SYSTEM":"UTC"},{"ECCENTRICITY":"0.00014620","PERIOD":"95.592","DECAY_DATE":null,"EPOCH":"2022-08-23T15:29:20.756832","REV_AT_EPOCH":"7220","NORAD_CAT_ID":"48409","RCS_SIZE":"LARGE","LAUNCH_DATE":"2021-05-04","TLE_LINE1":"1 48409U 21038BJ  22235.64537913  .00000383  00000-0  44630-4 0  9996","ARG_OF_PERICENTER":"71.4523","GP_ID":"210860890","COUNTRY_CODE":"US","MEAN_MOTION_DOT":"0.00000383","TLE_LINE2":"2 48409  53.0559  35.8211 0001462  71.4523 288.6625 15.06400517 72206","MEAN_ANOMALY":"288.6625","OBJECT_TYPE":"PAYLOAD","FILE":"3545624","MEAN_MOTION":"15.06400517","EPHEMERIS_TYPE":"0","CENTER_NAME":"EARTH","MEAN_ELEMENT_THEORY":"SGP4","ELEMENT_SET_NO":"999","APOAPSIS":"548.224","PERIAPSIS":"546.199","REF_FRAME":"TEME","CLASSIFICATION_TYPE":"U","RA_OF_ASC_NODE":"35.8211","OBJECT_ID":"2021-038BJ","OBJECT_NAME":"STARLINK-2596","SITE":"AFETR","INCLINATION":"53.0559","SEMIMAJOR_AXIS":"6925.347","MEAN_MOTION_DDOT":"0.0000000000000","BSTAR":"0.00004463000000","TIME_SYSTEM":"UTC"}];
